OBJECT_NAME,OBJECT_ID,EPOCH,MEAN_MOTION,ECCENTRICITY,INCLINATION,RA_OF_ASC_NODE,ARG_OF_PERICENTER,MEAN_ANOMALY,EPHEMERIS_TYPE,CLASSIFICATION_TYPE,NORAD_CAT_ID,ELEMENT_SET_NO,REV_AT_EPOCH,BSTAR,MEAN_MOTION_DOT,MEAN_MOTION_DDOT
QIANFAN-181,2026-124S,2026-06-19T05:34:46.470720,14.16649255,.00026053,88.9983,1.8080,109.8171,250.3298,0,U,69398,999,210,.24605882E-4,.63E-6,0
QIANFAN-182,2026-124T,2026-06-19T05:17:21.364224,14.18738386,.00025128,88.9983,1.8062,134.2037,225.9359,0,U,69399,999,210,.31931502E-4,.81E-6,0
QIANFAN-183,2026-125A,2026-06-19T05:56:07.264320,14.16459887,.00144378,88.9952,280.2177,166.3818,193.7763,0,U,69401,999,199,.38434766E-4,.91E-6,0
QIANFAN-184,2026-125B,2026-06-19T05:47:37.592448,14.16880278,.00154064,88.9950,280.2167,160.5672,199.6107,0,U,69402,999,199,.38907703E-4,.92E-6,0
QIANFAN-185,2026-125C,2026-06-18T19:38:02.799744,14.16970605,.00156777,88.9953,280.2649,161.9300,198.2449,0,U,69403,999,193,.1916095E-3,.399E-5,0
QIANFAN-186,2026-125D,2026-06-19T07:21:50.988960,14.17430584,.00146476,88.9954,280.2081,161.7314,198.4404,0,U,69404,999,200,.38120912E-4,.92E-6,0
QIANFAN-187,2026-125E,2026-06-19T07:17:37.296096,14.18341875,.00151544,88.9953,280.2076,163.0040,197.1660,0,U,69405,999,200,.18429417E-3,.394E-5,0
QIANFAN-188,2026-125F,2026-06-19T07:11:57.735456,14.19433389,.00150721,88.9953,280.2070,166.7305,193.4284,0,U,69406,999,200,.35997625E-4,.9E-6,0
QIANFAN-189,2026-125G,2026-06-19T07:12:23.521536,14.18752881,.0014356,88.9953,280.2070,163.7481,196.4172,0,U,69407,999,200,.13561394E-3,.296E-5,0
QIANFAN-190,2026-125H,2026-06-19T07:09:56.107584,14.19215975,.00150824,88.9953,280.2068,165.6970,194.4650,0,U,69408,999,200,.12534657E-3,.277E-5,0
QIANFAN-191,2026-125J,2026-06-19T07:03:46.896192,14.20086885,.00145324,88.9953,280.2060,164.3817,195.7824,0,U,69409,999,200,.29574085E-4,.78E-6,0
QIANFAN-192,2026-125K,2026-06-19T07:00:30.179808,14.20512942,.00154068,88.9953,280.2059,165.0248,195.1402,0,U,69410,999,200,.3596479E-4,.92E-6,0
QIANFAN-193,2026-125L,2026-06-19T06:55:41.219328,14.20955095,.00152914,88.9953,280.2053,165.3438,194.8199,0,U,69411,999,200,.36595481E-4,.94E-6,0
QIANFAN-194,2026-125M,2026-06-19T06:53:18.840768,14.21397141,.00145071,88.9953,280.2049,168.9868,191.1643,0,U,69412,999,199,.36820937E-4,.95E-6,0
QIANFAN-195,2026-125N,2026-06-19T06:50:58.545312,14.21794852,.00157327,88.9950,280.2046,167.6901,192.4677,0,U,69413,999,200,.37523817E-4,.97E-6,0
QIANFAN-196,2026-125P,2026-06-19T03:25:46.706880,14.22289390,.00157626,88.9953,280.2203,168.7483,191.4064,0,U,69414,999,198,.37485116E-4,.98E-6,0
QIANFAN-197,2026-125Q,2026-06-19T06:46:54.032448,14.22734037,.00141047,88.9953,280.2042,164.8638,195.2978,0,U,69415,999,199,.37214284E-4,.98E-6,0
QIANFAN-198,2026-125R,2026-06-19T06:47:49.540128,14.22060952,.00144742,88.9952,280.2043,164.3062,195.8581,0,U,69416,999,200,.3824975E-4,.99E-6,0
QIANFAN-199,2026-125S,2026-06-19T01:40:38.375904,14.23624057,.00161433,88.9952,280.2281,166.3579,193.8053,0,U,69417,999,197,.38349463E-4,.102E-5,0
QIANFAN-200,2026-125T,2026-06-19T07:05:36.217248,14.19634831,.00152294,88.9953,280.2064,163.3674,196.8019,0,U,69418,999,200,.17596432E-3,.386E-5,0
STARLINK-37537,2026-126A,2026-06-19T06:00:02.000160,15.75250794,.00015735,97.2834,30.3291,92.1818,154.5781,0,U,69420,999,307,-.90986829E-3,-.134093E-2,0
STARLINK-37585,2026-126B,2026-06-19T06:00:02.000160,15.75258663,.00015942,97.2838,30.3550,101.8413,204.9056,0,U,69421,999,307,-.94795199E-3,-.139658E-2,0
STARLINK-37573,2026-126C,2026-06-19T06:00:02.000160,15.75250385,.00014286,97.2838,30.3210,85.3395,143.4214,0,U,69422,999,307,-.84231362E-3,-.124283E-2,0
STARLINK-37820,2026-126D,2026-06-19T06:00:02.000160,15.80020882,.0001521,97.2830,30.3743,92.3822,257.9944,0,U,69423,999,307,-.84996489E-3,-.154416E-2,0
STARLINK-37822,2026-126E,2026-06-19T06:00:02.000160,15.80026258,.00015373,97.2828,30.3748,94.4906,256.9066,0,U,69424,999,307,-.9168735E-3,-.166375E-2,0
STARLINK-37836,2026-126F,2026-06-19T06:00:02.000160,15.80012459,.00014046,97.2829,30.3752,93.4078,259.0170,0,U,69425,999,307,-.75301816E-3,-.137036E-2,0
STARLINK-37850,2026-126G,2026-06-19T06:00:02.000160,15.80016907,.00013554,97.2828,30.3754,97.9049,255.5409,0,U,69426,999,312,-.74884218E-3,-.136314E-2,0
STARLINK-37823,2026-126H,2026-06-19T06:00:02.000160,15.79999949,.00014596,97.2829,30.3750,102.4569,252.0228,0,U,69427,999,307,-.70392718E-3,-.128169E-2,0
