
QIANFAN-181
1 69398U 26124S   26170.23248230  .00000063  00000+0  24606-4 0  9990
2 69398  88.9983   1.8080 0002605 109.8171 250.3298 14.16649255  2104

QIANFAN-182
1 69399U 26124T   26170.22038616  .00000081  00000+0  31932-4 0  9995
2 69399  88.9983   1.8062 0002512 134.2037 225.9359 14.18738386  2107

QIANFAN-183
1 69401U 26125A   26170.24730630  .00000091  00000+0  38435-4 0  9993
2 69401  88.9952 280.2177 0014437 166.3818 193.7763 14.16459887  1990

QIANFAN-184
1 69402U 26125B   26170.24140732  .00000092  00000+0  38908-4 0  9998
2 69402  88.9950 280.2167 0015406 160.5672 199.6107 14.16880278  1998

QIANFAN-185
1 69403U 26125C   26169.81808796  .00000399  00000+0  19161-3 0  9990
2 69403  88.9953 280.2649 0015677 161.9300 198.2449 14.16970605  1932

QIANFAN-186
1 69404U 26125D   26170.30684015  .00000092  00000+0  38121-4 0  9991
2 69404  88.9954 280.2081 0014647 161.7314 198.4404 14.17430584  2003

QIANFAN-187
1 69405U 26125E   26170.30390389  .00000394  00000+0  18429-3 0  9993
2 69405  88.9953 280.2076 0015154 163.0040 197.1660 14.18341875  2007

QIANFAN-188
1 69406U 26125F   26170.29997379  .00000090  00000+0  35998-4 0  9998
2 69406  88.9953 280.2070 0015072 166.7305 193.4284 14.19433389  2009

QIANFAN-189
1 69407U 26125G   26170.30027224  .00000296  00000+0  13561-3 0  9993
2 69407  88.9953 280.2070 0014356 163.7481 196.4172 14.18752881  2005

QIANFAN-190
1 69408U 26125H   26170.29856606  .00000277  00000+0  12535-3 0  9995
2 69408  88.9953 280.2068 0015082 165.6970 194.4650 14.19215975  2002

QIANFAN-191
1 69409U 26125J   26170.29429278  .00000078  00000+0  29574-4 0  9998
2 69409  88.9953 280.2060 0014532 164.3817 195.7824 14.20086885  2005

QIANFAN-192
1 69410U 26125K   26170.29201597  .00000092  00000+0  35965-4 0  9999
2 69410  88.9953 280.2059 0015406 165.0248 195.1402 14.20512942  2006

QIANFAN-193
1 69411U 26125L   26170.28867152  .00000094  00000+0  36595-4 0  9996
2 69411  88.9953 280.2053 0015291 165.3438 194.8199 14.20955095  2006

QIANFAN-194
1 69412U 26125M   26170.28702362  .00000095  00000+0  36821-4 0  9991
2 69412  88.9953 280.2049 0014507 168.9868 191.1643 14.21397141  1991

QIANFAN-195
1 69413U 26125N   26170.28539983  .00000097  00000+0  37524-4 0  9992
2 69413  88.9950 280.2046 0015732 167.6901 192.4677 14.21794852  2005

QIANFAN-196
1 69414U 26125P   26170.14290170  .00000098  00000+0  37485-4 0  9997
2 69414  88.9953 280.2203 0015762 168.7483 191.4064 14.22289390  1986

QIANFAN-197
1 69415U 26125Q   26170.28256982  .00000098  00000+0  37214-4 0  9996
2 69415  88.9953 280.2042 0014104 164.8638 195.2978 14.22734037  1996

QIANFAN-198
1 69416U 26125R   26170.28321227  .00000099  00000+0  38250-4 0  9994
2 69416  88.9952 280.2043 0014474 164.3062 195.8581 14.22060952  2000

QIANFAN-199
1 69417U 26125S   26170.06988861  .00000102  00000+0  38349-4 0  9998
2 69417  88.9952 280.2281 0016143 166.3579 193.8053 14.23624057  1975

QIANFAN-200
1 69418U 26125T   26170.29555807  .00000386  00000+0  17596-3 0  9998
2 69418  88.9953 280.2064 0015229 163.3674 196.8019 14.19634831  2009

STARLINK-37537
1 69420U 26126A   26170.25002315 -.00134093  00000+0 -90987-3 0  9999
2 69420  97.2834  30.3291 0001573  92.1818 154.5781 15.75250794  3075

STARLINK-37573
1 69422U 26126C   26170.25002315 -.00124283  00000+0 -84231-3 0  9996
2 69422  97.2838  30.3210 0001428  85.3395 143.4214 15.75250385  3079

STARLINK-37585
1 69421U 26126B   26170.25002315 -.00139658  00000+0 -94795-3 0  9993
2 69421  97.2838  30.3550 0001594 101.8413 204.9056 15.75258663  3078

STARLINK-37820
1 69423U 26126D   26170.25002315 -.00154416  00000+0 -84996-3 0  9996
2 69423  97.2830  30.3743 0001521  92.3822 257.9944 15.80020882  3074

STARLINK-37822
1 69424U 26126E   26170.25002315 -.00166375  00000+0 -91687-3 0  9999
2 69424  97.2828  30.3748 0001537  94.4906 256.9066 15.80026258  3077

STARLINK-37823
1 69427U 26126H   26170.25002315 -.00128169  00000+0 -70393-3 0  9992
2 69427  97.2829  30.3750 0001459 102.4569 252.0228 15.79999949  3073

STARLINK-37836
1 69425U 26126F   26170.25002315 -.00137036  00000+0 -75302-3 0  9998
2 69425  97.2829  30.3752 0001404  93.4078 259.0170 15.80012459  3074

STARLINK-37850
1 69426U 26126G   26170.25002315 -.00136314  00000+0 -74884-3 0  9991
2 69426  97.2828  30.3754 0001355  97.9049 255.5409 15.80016907  3122
